[{"OBJECT_NAME":"GRUS-1D","OBJECT_ID":"2021-022E","EPOCH":"2026-03-09T23:44:16.341792","MEAN_MOTION":14.9882754,"ECCENTRICITY":0.00122189,"INCLINATION":97.5533,"RA_OF_ASC_NODE":315.589,"ARG_OF_PERICENTER":289.6697,"MEAN_ANOMALY":70.3207,"EPHEMERIS_TYPE":0,"CLASSIFICATION_TYPE":"U","NORAD_CAT_ID":47936,"ELEMENT_SET_NO":999,"REV_AT_EPOCH":27104,"BSTAR":0.00015470185,"MEAN_MOTION_DOT":1.811e-5,"MEAN_MOTION_DDOT":0},{"OBJECT_NAME":"ICEYE-X50","OBJECT_ID":"2025-052AX","EPOCH":"2026-03-09T23:21:07.900704","MEAN_MOTION":14.94907916,"ECCENTRICITY":0.00023707,"INCLINATION":97.7003,"RA_OF_ASC_NODE":322.7375,"ARG_OF_PERICENTER":140.471,"MEAN_ANOMALY":219.6684,"EPHEMERIS_TYPE":0,"CLASSIFICATION_TYPE":"U","NORAD_CAT_ID":63255,"ELEMENT_SET_NO":999,"REV_AT_EPOCH":5382,"BSTAR":0.00028014497,"MEAN_MOTION_DOT":2.999e-5,"MEAN_MOTION_DDOT":0}]
